[{"OBJECT_NAME":"COSMOS 2515","OBJECT_ID":"2016-020A","EPOCH":"2026-03-09T23:19:22.597248","MEAN_MOTION":15.0760084,"ECCENTRICITY":0.00222602,"INCLINATION":97.9825,"RA_OF_ASC_NODE":80.7081,"ARG_OF_PERICENTER":278.8424,"MEAN_ANOMALY":81.0282,"EPHEMERIS_TYPE":0,"CLASSIFICATION_TYPE":"U","NORAD_CAT_ID":41394,"ELEMENT_SET_NO":999,"REV_AT_EPOCH":54546,"BSTAR":0.00011725414,"MEAN_MOTION_DOT":1.724e-5,"MEAN_MOTION_DDOT":0},{"OBJECT_NAME":"STARLINK-4770","OBJECT_ID":"2022-114AH","EPOCH":"2026-03-09T21:18:51.035616","MEAN_MOTION":15.08839182,"ECCENTRICITY":0.00012995,"INCLINATION":53.2171,"RA_OF_ASC_NODE":293.0853,"ARG_OF_PERICENTER":90.4334,"MEAN_ANOMALY":269.6807,"EPHEMERIS_TYPE":0,"CLASSIFICATION_TYPE":"U","NORAD_CAT_ID":53849,"ELEMENT_SET_NO":999,"REV_AT_EPOCH":19300,"BSTAR":1.9561774e-5,"MEAN_MOTION_DOT":2.3e-7,"MEAN_MOTION_DDOT":0}]
